TOMORROW-R2             
1 56962U 23084AG  26068.88846178  .00107013  00000+0  81619-3 0  9996
2 56962  97.5895 222.1734 0005114 248.1295 111.9424 15.71879583153326
STARLINK-11711 [DTC]    
1 64378U 25127J   26068.42660146  .00207662  00000+0  15840-2 0  9998
2 64378  43.0007  85.8825 0000750 309.6739  50.4062 15.70806460 43572
