[{"OBJECT_NAME":"TOMORROW-R2","OBJECT_ID":"2023-084AG","EPOCH":"2026-03-09T21:19:23.098656","MEAN_MOTION":15.71879583,"ECCENTRICITY":0.00051142,"INCLINATION":97.5895,"RA_OF_ASC_NODE":222.1734,"ARG_OF_PERICENTER":248.1295,"MEAN_ANOMALY":111.9424,"EPHEMERIS_TYPE":0,"CLASSIFICATION_TYPE":"U","NORAD_CAT_ID":56962,"ELEMENT_SET_NO":999,"REV_AT_EPOCH":15332,"BSTAR":0.00081619373,"MEAN_MOTION_DOT":0.00107013,"MEAN_MOTION_DDOT":0},{"OBJECT_NAME":"STARLINK-11711 [DTC]","OBJECT_ID":"2025-127J","EPOCH":"2026-03-09T10:14:18.366144","MEAN_MOTION":15.7080646,"ECCENTRICITY":7.5e-5,"INCLINATION":43.0007,"RA_OF_ASC_NODE":85.8825,"ARG_OF_PERICENTER":309.6739,"MEAN_ANOMALY":50.4062,"EPHEMERIS_TYPE":0,"CLASSIFICATION_TYPE":"U","NORAD_CAT_ID":64378,"ELEMENT_SET_NO":999,"REV_AT_EPOCH":4357,"BSTAR":0.0015839652,"MEAN_MOTION_DOT":0.00207662,"MEAN_MOTION_DDOT":0}]
